$$SOE
2460154.500000000, A.D. 2023-Jul-29 00:00:00.0000, 1.205297260067311E+08, 5.703647404058901E+08, -1.305080009145966E+07,
2460161.500000000, A.D. 2023-Aug-05 00:00:00.0000, 1.120359754922745E+08, 5.737017054159404E+08, -1.353173586904266E+07,
2460168.500000000, A.D. 2023-Aug-12 00:00:00.0000, 1.035150766159646E+08, 5.768992649365304E+08, -1.400938382312495E+07,
2460175.500000000, A.D. 2023-Aug-19 00:00:00.0000, 9.496929905149437E+07, 5.799577746896398E+08, -1.448365518324292E+07,
2460182.500000000, A.D. 2023-Aug-26 00:00:00.0000, 8.640088277189276E+07, 5.828776204739990E+08, -1.495446350924572E+07,
2460189.500000000, A.D. 2023-Sep-02 00:00:00.0000, 7.781203802864288E+07, 5.856592170604403E+08, -1.542172465347216E+07,
2460196.500000000, A.D. 2023-Sep-09 00:00:00.0000, 6.920494537234175E+07, 5.883030070025730E+08, -1.588535673392531E+07,
2460203.500000000, A.D. 2023-Sep-16 00:00:00.0000, 6.058175588157850E+07, 5.908094593048763E+08, -1.634528013864696E+07,
2460210.500000000, A.D. 2023-Sep-23 00:00:00.0000, 5.194459201474934E+07, 5.931790682352371E+08, -1.680141757606322E+07,
2460217.500000000, A.D. 2023-Sep-30 00:00:00.0000, 4.329554874385287E+07, 5.954123534730788E+08, -1.725369404287824E+07,
2460224.500000000, A.D. 2023-Oct-07 00:00:00.0000, 3.463669261556918E+07, 5.975098610499883E+08, -1.770203653797206E+07,
2460231.500000000, A.D. 2023-Oct-14 00:00:00.0000, 2.597005977793471E+07, 5.994721617686059E+08, -1.814637388823068E+07,
2460238.500000000, A.D. 2023-Oct-21 00:00:00.0000, 1.729765619937019E+07, 6.012998487027419E+08, -1.858663685131955E+07,
2460245.500000000, A.D. 2023-Oct-28 00:00:00.0000, 8.621458654925436E+06, 6.029935360391631E+08, -1.902275817998871E+07,
2460252.500000000, A.D. 2023-Nov-04 00:00:00.0000, -5.658477107850268E+04, 6.045538584897612E+08, -1.945467259600887E+07,
2460259.500000000, A.D. 2023-Nov-11 00:00:00.0000, -8.734554489731198E+06, 6.059814706731392E+08, -1.988231673875535E+07,
2460266.500000000, A.D. 2023-Nov-18 00:00:00.0000, -1.741055930154413E+07, 6.072770464005209E+08, -2.030562911354306E+07,
2460273.500000000, A.D. 2023-Nov-25 00:00:00.0000, -2.608273630848686E+07, 6.084412778881484E+08, -2.072455004431498E+07,
2460280.500000000, A.D. 2023-Dec-02 00:00:00.0000, -3.474925081722184E+07, 6.094748748848853E+08, -2.113902163403198E+07,
2460287.500000000, A.D. 2023-Dec-09 00:00:00.0000, -4.340829615678927E+07, 6.103785636561575E+08, -2.154898774465442E+07,
2460294.500000000, A.D. 2023-Dec-16 00:00:00.0000, -5.205809312404554E+07, 6.111530858367543E+08, -2.195439402208838E+07,
2460301.500000000, A.D. 2023-Dec-23 00:00:00.0000, -6.069688870914583E+07, 6.117991978398154E+08, -2.235518794199169E+07,
2460308.500000000, A.D. 2023-Dec-30 00:00:00.0000, -6.932295544178979E+07, 6.123176718710870E+08, -2.275131866797948E+07,
2460315.500000000, A.D. 2024-Jan-06 00:00:00.0000, -7.793459313091102E+07, 6.127092961866611E+08, -2.314273675275895E+07,
2460322.500000000, A.D. 2024-Jan-13 00:00:00.0000, -8.653012982618064E+07, 6.129748727857527E+08, -2.352939412096140E+07,
2460329.500000000, A.D. 2024-Jan-20 00:00:00.0000, -9.510792077916326E+07, 6.131152156229639E+08, -2.391124419410557E+07,
2460336.500000000, A.D. 2024-Jan-27 00:00:00.0000, -1.036663474334896E+08, 6.131311499922650E+08, -2.428824191866356E+07,
2460343.500000000, A.D. 2024-Feb-03 00:00:00.0000, -1.122038168729532E+08, 6.130235121334761E+08, -2.466034373570722E+07,
2460350.500000000, A.D. 2024-Feb-10 00:00:00.0000, -1.207187614508511E+08, 6.127931487695637E+08, -2.502750754157302E+07,
2460357.500000000, A.D. 2024-Feb-17 00:00:00.0000, -1.292096384625077E+08, 6.124409165822382E+08, -2.538969265179992E+07,
2460364.500000000, A.D. 2024-Feb-24 00:00:00.0000, -1.376749298255902E+08, 6.119676816402347E+08, -2.574685977058631E+07,
2460371.500000000, A.D. 2024-Mar-02 00:00:00.0000, -1.461131417393456E+08, 6.113743187472992E+08, -2.609897097122648E+07,
2460378.500000000, A.D. 2024-Mar-09 00:00:00.0000, -1.545228041844141E+08, 6.106617106465130E+08, -2.644598970547679E+07,
2460385.500000000, A.D. 2024-Mar-16 00:00:00.0000, -1.629024698684227E+08, 6.098307472777146E+08, -2.678788086203712E+07,
2460392.500000000, A.D. 2024-Mar-23 00:00:00.0000, -1.712507127215025E+08, 6.088823261967832E+08, -2.712461077408436E+07,
2460399.500000000, A.D. 2024-Mar-30 00:00:00.0000, -1.795661281831019E+08, 6.078173541298492E+08, -2.745614697256818E+07,
2460406.500000000, A.D. 2024-Apr-06 00:00:00.0000, -1.878473350239800E+08, 6.066367462938623E+08, -2.778245798391044E+07,
2460413.500000000, A.D. 2024-Apr-13 00:00:00.0000, -1.960929751529284E+08, 6.053414243188462E+08, -2.810351342935804E+07,
2460420.500000000, A.D. 2024-Apr-20 00:00:00.0000, -2.043017123611721E+08, 6.039323154485300E+08, -2.841928411996534E+07,
2460427.500000000, A.D. 2024-Apr-27 00:00:00.0000, -2.124722315216413E+08, 6.024103524579070E+08, -2.872974205396941E+07,
2460434.500000000, A.D. 2024-May-04 00:00:00.0000, -2.206032381553424E+08, 6.007764735838703E+08, -2.903486038202515E+07,
2460441.500000000, A.D. 2024-May-11 00:00:00.0000, -2.286934581267841E+08, 5.990316223667783E+08, -2.933461337036252E+07,
2460448.500000000, A.D. 2024-May-18 00:00:00.0000, -2.367416373867997E+08, 5.971767474244171E+08, -2.962897636747327E+07,
2460455.500000000, A.D. 2024-May-25 00:00:00.0000, -2.447465417383347E+08, 5.952128021512121E+08, -2.991792577700490E+07,
2460462.500000000, A.D. 2024-Jun-01 00:00:00.0000, -2.527069565655937E+08, 5.931407442852527E+08, -3.020143904683325E+07,
2460469.500000000, A.D. 2024-Jun-08 00:00:00.0000, -2.606216862803724E+08, 5.909615353201585E+08, -3.047949469854587E+07,
2460476.500000000, A.D. 2024-Jun-15 00:00:00.0000, -2.684895530862383E+08, 5.886761403068238E+08, -3.075207238917977E+07,
2460483.500000000, A.D. 2024-Jun-22 00:00:00.0000, -2.763093960659376E+08, 5.862855292202928E+08, -3.101915281675068E+07,
2460490.500000000, A.D. 2024-Jun-29 00:00:00.0000, -2.840800727133513E+08, 5.837906780709209E+08, -3.128071742354152E+07,
2460497.500000000, A.D. 2024-Jul-06 00:00:00.0000, -2.918004602645264E+08, 5.811925672876601E+08, -3.153674834133136E+07,
2460504.500000000, A.D. 2024-Jul-13 00:00:00.0000, -2.994694548789719E+08, 5.784921801965289E+08, -3.178722852627981E+07,
2460511.500000000, A.D. 2024-Jul-20 00:00:00.0000, -3.070859706575337E+08, 5.756905027428581E+08, -3.203214180740982E+07,
2460518.500000000, A.D. 2024-Jul-27 00:00:00.0000, -3.146489391531289E+08, 5.727885234977770E+08, -3.227147286694875E+07,
2460525.500000000, A.D. 2024-Aug-03 00:00:00.0000, -3.221573091016609E+08, 5.697872335738944E+08, -3.250520720827895E+07,
2460532.500000000, A.D. 2024-Aug-10 00:00:00.0000, -3.296100462075736E+08, 5.666876264458233E+08, -3.273333112723321E+07,
2460539.500000000, A.D. 2024-Aug-17 00:00:00.0000, -3.370061329368103E+08, 5.634906976975255E+08, -3.295583168952671E+07,
2460546.500000000, A.D. 2024-Aug-24 00:00:00.0000, -3.443445682893189E+08, 5.601974446744419E+08, -3.317269671895093E+07,
2460553.500000000, A.D. 2024-Aug-31 00:00:00.0000, -3.516243674354057E+08, 5.568088659790326E+08, -3.338391481220916E+07,
2460560.500000000, A.D. 2024-Sep-07 00:00:00.0000, -3.588445608503922E+08, 5.533259609360744E+08, -3.358947540383127E+07,
2460567.500000000, A.D. 2024-Sep-14 00:00:00.0000, -3.660041928624375E+08, 5.497497300235424E+08, -3.378936880783579E+07,
2460574.500000000, A.D. 2024-Sep-21 00:00:00.0000, -3.731023216425344E+08, 5.460811766818422E+08, -3.398358601659814E+07,
2460581.500000000, A.D. 2024-Sep-28 00:00:00.0000, -3.801380211238909E+08, 5.423213072738004E+08, -3.417211847616053E+07,
2460588.500000000, A.D. 2024-Oct-05 00:00:00.0000, -3.871103811806359E+08, 5.384711291963667E+08, -3.435495817445067E+07,
2460595.500000000, A.D. 2024-Oct-12 00:00:00.0000, -3.940185064268596E+08, 5.345316501237411E+08, -3.453209776586017E+07,
2460602.500000000, A.D. 2024-Oct-19 00:00:00.0000, -4.008615153872098E+08, 5.305038781113548E+08, -3.470353059383816E+07,
2460609.500000000, A.D. 2024-Oct-26 00:00:00.0000, -4.076385400712937E+08, 5.263888217594223E+08, -3.486925067405352E+07,
2460616.500000000, A.D. 2024-Nov-02 00:00:00.0000, -4.143487256943612E+08, 5.221874902876303E+08, -3.502925267382184E+07,
2460623.500000000, A.D. 2024-Nov-09 00:00:00.0000, -4.209912304475268E+08, 5.179008935416617E+08, -3.518353189491630E+07,
2460630.500000000, A.D. 2024-Nov-16 00:00:00.0000, -4.275652252914865E+08, 5.135300419318671E+08, -3.533208426205650E+07,
2460637.500000000, A.D. 2024-Nov-23 00:00:00.0000, -4.340698937266645E+08, 5.090759462542548E+08, -3.547490632538253E+07,
2460644.500000000, A.D. 2024-Nov-30 00:00:00.0000, -4.405044313313652E+08, 5.045396173511842E+08, -3.561199529941094E+07,
2460651.500000000, A.D. 2024-Dec-07 00:00:00.0000, -4.468680446484228E+08, 4.999220660323598E+08, -3.574334914245507E+07,
2460658.500000000, A.D. 2024-Dec-14 00:00:00.0000, -4.531599501090944E+08, 4.952243044801425E+08, -3.586896651322061E+07,
2460665.500000000, A.D. 2024-Dec-21 00:00:00.0000, -4.593793753128839E+08, 4.904473478987316E+08, -3.598884649322912E+07,
2460672.500000000, A.D. 2024-Dec-28 00:00:00.0000, -4.655255606904169E+08, 4.855922134399586E+08, -3.610298849828768E+07,
2460679.500000000, A.D. 2025-Jan-04 00:00:00.0000, -4.715977589517998E+08, 4.806599187813118E+08, -3.621139242272627E+07,
2460686.500000000, A.D. 2025-Jan-11 00:00:00.0000, -4.775952341420100E+08, 4.756514820158597E+08, -3.631405871350619E+07,
2460693.500000000, A.D. 2025-Jan-18 00:00:00.0000, -4.835172612203138E+08, 4.705679219355101E+08, -3.641098836499631E+07,
2460700.500000000, A.D. 2025-Jan-25 00:00:00.0000, -4.893631259199588E+08, 4.654102582331003E+08, -3.650218289528045E+07,
2460707.500000000, A.D. 2025-Feb-01 00:00:00.0000, -4.951321246983253E+08, 4.601795115930711E+08, -3.658764432355699E+07,
2460714.500000000, A.D. 2025-Feb-08 00:00:00.0000, -5.008235647188362E+08, 4.548767036902289E+08, -3.666737515212223E+07,
$$EOE